{"type": "FeatureCollection", "features": [ {"type": "Feature", "properties": {"norad_id": 31493, "name": "FENGYUN 1C DEB", "group": "fengyun-1c-debris", "lat": -79.55579271103693, "lon": 19.26105822152528, "alt_km": 970.8243153255826, "timestamp": "2025-12-22T09:53:37.684356+00:00", "meta": {"OBJECT_NAME": "FENGYUN 1C DEB", "OBJECT_ID": "1999-025BWG", "EPOCH": "2025-12-21T03:17:34.295136", "MEAN_MOTION": 13.92984484, "ECCENTRICITY": 0.01172359, "INCLINATION": 100.1363, "RA_OF_ASC_NODE": 301.8208, "ARG_OF_PERICENTER": 153.2709, "MEAN_ANOMALY": 207.4555, "EPHEMERIS_TYPE": 0, "CLASSIFICATION_TYPE": "U", "NORAD_CAT_ID": 31493, "ELEMENT_SET_NO": 999, "REV_AT_EPOCH": 59983, "BSTAR": 0.00067667024, "MEAN_MOTION_DOT": 8.79e-06, "MEAN_MOTION_DDOT": 0}, "tle": {"line1": "1 31493U 99025BWG 25355.13720249  .00000879  00000+0  67667-3 0  9991", "line2": "2 31493 100.1363 301.8208 0117235 153.2709 207.4555 13.92984484599838"}}, "geometry": {"type": "Point", "coordinates": [19.26105822152528, -79.55579271103693]}}, {"type": "Feature", "properties": {"norad_id": 31495, "name": "FENGYUN 1C DEB", "group": "fengyun-1c-debris", "lat": -76.67693927538843, "lon": -87.25371956494521, "alt_km": 813.4655165643835, "timestamp": "2025-12-22T09:53:37.684366+00:00", "meta": {"OBJECT_NAME": "FENGYUN 1C DEB", "OBJECT_ID": "1999-025BWJ", "EPOCH": "2025-12-20T09:32:47.149152", "MEAN_MOTION": 14.29252624, "ECCENTRICITY": 0.00255899, "INCLINATION": 99.12, "RA_OF_ASC_NODE": 227.9275, "ARG_OF_PERICENTER": 154.7696, "MEAN_ANOMALY": 205.474, "EPHEMERIS_TYPE": 0, "CLASSIFICATION_TYPE": "U", "NORAD_CAT_ID": 31495, "ELEMENT_SET_NO": 999, "REV_AT_EPOCH": 63500, "BSTAR": 0.00086082116, "MEAN_MOTION_DOT": 2.149e-05, "MEAN_MOTION_DDOT": 0}, "tle": {"line1": "1 31495U 99025BWJ 25354.39776793  .00002149  00000+0  86082-3 0  9999", "line2": "2 31495  99.1200 227.9275 0025589 154.7696 205.4740 14.29252624635009"}}, "geometry": {"type": "Point", "coordinates": [-87.25371956494521, -76.67693927538843]}}, {"type": "Feature", "properties": {"norad_id": 31497, "name": "FENGYUN 1C DEB", "group": "fengyun-1c-debris", "lat": 61.74778811301744, "lon": -36.15479657662137, "alt_km": 791.9156788986329, "timestamp": "2025-12-22T09:53:37.684376+00:00", "meta": {"OBJECT_NAME": "FENGYUN 1C DEB", "OBJECT_ID": "1999-025BWL", "EPOCH": "2025-12-20T04:29:02.353920", "MEAN_MOTION": 14.39239205, "ECCENTRICITY": 0.01673435, "INCLINATION": 98.371, "RA_OF_ASC_NODE": 337.5747, "ARG_OF_PERICENTER": 320.7302, "MEAN_ANOMALY": 96.6636, "EPHEMERIS_TYPE": 0, "CLASSIFICATION_TYPE": "U", "NORAD_CAT_ID": 31497, "ELEMENT_SET_NO": 999, "REV_AT_EPOCH": 97662, "BSTAR": 0.00018663983, "MEAN_MOTION_DOT": 6.31e-06, "MEAN_MOTION_DDOT": 0}, "tle": {"line1": "1 31497U 99025BWL 25354.18683280  .00000631  00000+0  18664-3 0  9991", "line2": "2 31497  98.3710 337.5747 0167343 320.7302  96.6636 14.39239205976625"}}, "geometry": {"type": "Point", "coordinates": [-36.15479657662137, 61.74778811301744]}}, {"type": "Feature", "properties": {"norad_id": 31498, "name": "FENGYUN 1C DEB", "group": "fengyun-1c-debris", "lat": -23.668679901216233, "lon": -29.504261678906566, "alt_km": 1106.5025506196662, "timestamp": "2025-12-22T09:53:37.684386+00:00", "meta": {"OBJECT_NAME": "FENGYUN 1C DEB", "OBJECT_ID": "1999-025BWM", "EPOCH": "2025-12-20T21:23:31.452864", "MEAN_MOTION": 13.77022887, "ECCENTRICITY": 0.0219158, "INCLINATION": 98.4859, "RA_OF_ASC_NODE": 325.3849, "ARG_OF_PERICENTER": 122.8448, "MEAN_ANOMALY": 239.4012, "EPHEMERIS_TYPE": 0, "CLASSIFICATION_TYPE": "U", "NORAD_CAT_ID": 31498, "ELEMENT_SET_NO": 999, "REV_AT_EPOCH": 92846, "BSTAR": 0.0012225, "MEAN_MOTION_DOT": 1.406e-05, "MEAN_MOTION_DDOT": 0}, "tle": {"line1": "1 31498U 99025BWM 25354.89133626  .00001406  00000+0  12225-2 0  9991", "line2": "2 31498  98.4859 325.3849 0219158 122.8448 239.4012 13.77022887928464"}}, "geometry": {"type": "Point", "coordinates": [-29.504261678906566, -23.668679901216233]}}, {"type": "Feature", "properties": {"norad_id": 31503, "name": "FENGYUN 1C DEB", "group": "fengyun-1c-debris", "lat": 38.37976008743884, "lon": -144.19414530172008, "alt_km": 831.1872755763552, "timestamp": "2025-12-22T09:53:37.684396+00:00", "meta": {"OBJECT_NAME": "FENGYUN 1C DEB", "OBJECT_ID": "1999-025BWS", "EPOCH": "2025-12-20T20:34:28.426080", "MEAN_MOTION": 14.22622897, "ECCENTRICITY": 0.0048929, "INCLINATION": 100.0987, "RA_OF_ASC_NODE": 222.1407, "ARG_OF_PERICENTER": 163.828, "MEAN_ANOMALY": 196.4468, "EPHEMERIS_TYPE": 0, "CLASSIFICATION_TYPE": "U", "NORAD_CAT_ID": 31503, "ELEMENT_SET_NO": 999, "REV_AT_EPOCH": 64362, "BSTAR": 0.0006853, "MEAN_MOTION_DOT": 1.496e-05, "MEAN_MOTION_DDOT": 0}, "tle": {"line1": "1 31503U 99025BWS 25354.85727345  .00001496  00000+0  68530-3 0  9991", "line2": "2 31503 100.0987 222.1407 0048929 163.8280 196.4468 14.22622897643629"}}, "geometry": {"type": "Point", "coordinates": [-144.19414530172008, 38.37976008743884]}}, {"type": "Feature", "properties": {"norad_id": 31507, "name": "FENGYUN 1C DEB", "group": "fengyun-1c-debris", "lat": 61.15978233695106, "lon": 13.264542996809219, "alt_km": 631.3616627173651, "timestamp": "2025-12-22T09:53:37.684405+00:00", "meta": {"OBJECT_NAME": "FENGYUN 1C DEB", "OBJECT_ID": "1999-025BWW", "EPOCH": "2025-12-20T20:23:18.158208", "MEAN_MOTION": 14.52199341, "ECCENTRICITY": 0.01175721, "INCLINATION": 98.1924, "RA_OF_ASC_NODE": 26.9051, "ARG_OF_PERICENTER": 53.4544, "MEAN_ANOMALY": 123.5348, "EPHEMERIS_TYPE": 0, "CLASSIFICATION_TYPE": "U", "NORAD_CAT_ID": 31507, "ELEMENT_SET_NO": 999, "REV_AT_EPOCH": 98138, "BSTAR": 0.0002804049, "MEAN_MOTION_DOT": 1.197e-05, "MEAN_MOTION_DDOT": 0}, "tle": {"line1": "1 31507U 99025BWW 25354.84951572  .00001197  00000+0  28040-3 0  9995", "line2": "2 31507  98.1924  26.9051 0117572  53.4544 123.5348 14.52199341981386"}}, "geometry": {"type": "Point", "coordinates": [13.264542996809219, 61.15978233695106]}}, {"type": "Feature", "properties": {"norad_id": 31508, "name": "FENGYUN 1C DEB", "group": "fengyun-1c-debris", "lat": 72.81886868089593, "lon": -45.217278387178276, "alt_km": 700.1716002178182, "timestamp": "2025-12-22T09:53:37.684416+00:00", "meta": {"OBJECT_NAME": "FENGYUN 1C DEB", "OBJECT_ID": "1999-025BWX", "EPOCH": "2025-12-20T06:31:11.093088", "MEAN_MOTION": 14.62670954, "ECCENTRICITY": 0.0032729, "INCLINATION": 98.622, "RA_OF_ASC_NODE": 103.1597, "ARG_OF_PERICENTER": 301.7893, "MEAN_ANOMALY": 58.012, "EPHEMERIS_TYPE": 0, "CLASSIFICATION_TYPE": "U", "NORAD_CAT_ID": 31508, "ELEMENT_SET_NO": 999, "REV_AT_EPOCH": 97034, "BSTAR": 0.0016814, "MEAN_MOTION_DOT": 8.577e-05, "MEAN_MOTION_DDOT": 0}, "tle": {"line1": "1 31508U 99025BWX 25354.27165617  .00008577  00000+0  16814-2 0  9994", "line2": "2 31508  98.6220 103.1597 0032729 301.7893  58.0120 14.62670954970349"}}, "geometry": {"type": "Point", "coordinates": [-45.217278387178276, 72.81886868089593]}}, {"type": "Feature", "properties": {"norad_id": 31509, "name": "FENGYUN 1C DEB", "group": "fengyun-1c-debris", "lat": -40.16856595996145, "lon": 123.1624977125768, "alt_km": 1005.5241691559177, "timestamp": "2025-12-22T09:53:37.684427+00:00", "meta": {"OBJECT_NAME": "FENGYUN 1C DEB", "OBJECT_ID": "1999-025BWY", "EPOCH": "2025-12-21T01:23:15.007776", "MEAN_MOTION": 13.94941523, "ECCENTRICITY": 0.02044564, "INCLINATION": 99.0225, "RA_OF_ASC_NODE": 114.1295, "ARG_OF_PERICENTER": 196.0227, "MEAN_ANOMALY": 163.4404, "EPHEMERIS_TYPE": 0, "CLASSIFICATION_TYPE": "U", "NORAD_CAT_ID": 31509, "ELEMENT_SET_NO": 999, "REV_AT_EPOCH": 94078, "BSTAR": 0.0015484001, "MEAN_MOTION_DOT": 2.435e-05, "MEAN_MOTION_DDOT": 0}, "tle": {"line1": "1 31509U 99025BWY 25355.05781259  .00002435  00000+0  15484-2 0  9997", "line2": "2 31509  99.0225 114.1295 0204456 196.0227 163.4404 13.94941523940789"}}, "geometry": {"type": "Point", "coordinates": [123.1624977125768, -40.16856595996145]}}, {"type": "Feature", "properties": {"norad_id": 31510, "name": "FENGYUN 1C DEB", "group": "fengyun-1c-debris", "lat": 39.81526161763135, "lon": -11.847232080354061, "alt_km": 810.0484374396829, "timestamp": "2025-12-22T09:53:37.684437+00:00", "meta": {"OBJECT_NAME": "FENGYUN 1C DEB", "OBJECT_ID": "1999-025BWZ", "EPOCH": "2025-12-20T19:32:19.154112", "MEAN_MOTION": 14.24579723, "ECCENTRICITY": 0.0036702, "INCLINATION": 98.5531, "RA_OF_ASC_NODE": 353.8036, "ARG_OF_PERICENTER": 307.7687, "MEAN_ANOMALY": 180.91, "EPHEMERIS_TYPE": 0, "CLASSIFICATION_TYPE": "U", "NORAD_CAT_ID": 31510, "ELEMENT_SET_NO": 999, "REV_AT_EPOCH": 96602, "BSTAR": 0.00036270315, "MEAN_MOTION_DOT": 8.05e-06, "MEAN_MOTION_DDOT": 0}, "tle": {"line1": "1 31510U 99025BWZ 25354.81411058  .00000805  00000+0  36270-3 0  9995", "line2": "2 31510  98.5531 353.8036 0036702 307.7687 180.9100 14.24579723966023"}}, "geometry": {"type": "Point", "coordinates": [-11.847232080354061, 39.81526161763135]}}, {"type": "Feature", "properties": {"norad_id": 31511, "name": "FENGYUN 1C DEB", "group": "fengyun-1c-debris", "lat": 24.966008738685364, "lon": -10.302389438870065, "alt_km": 740.5528430427021, "timestamp": "2025-12-22T09:53:37.684451+00:00", "meta": {"OBJECT_NAME": "FENGYUN 1C DEB", "OBJECT_ID": "1999-025BXA", "EPOCH": "2025-12-16T16:57:53.904960", "MEAN_MOTION": 14.28101232, "ECCENTRICITY": 0.01095882, "INCLINATION": 99.069, "RA_OF_ASC_NODE": 159.5093, "ARG_OF_PERICENTER": 215.4224, "MEAN_ANOMALY": 143.9644, "EPHEMERIS_TYPE": 0, "CLASSIFICATION_TYPE": "U", "NORAD_CAT_ID": 31511, "ELEMENT_SET_NO": 999, "REV_AT_EPOCH": 95857, "BSTAR": 0.0010389411, "MEAN_MOTION_DOT": 2.707e-05, "MEAN_MOTION_DDOT": 0}, "tle": {"line1": "1 31511U 99025BXA 25350.70687390  .00002707  00000+0  10389-2 0  9999", "line2": "2 31511  99.0690 159.5093 0109588 215.4224 143.9644 14.28101232958578"}}, "geometry": {"type": "Point", "coordinates": [-10.302389438870065, 24.966008738685364]}}]}